{"type": "FeatureCollection", "features": [ {"type": "Feature", "properties": {"norad_id": 31241, "name": "FENGYUN 1C DEB", "group": "fengyun-1c-debris", "lat": 57.883133295910575, "lon": -23.665985847361977, "alt_km": 719.8992884233539, "timestamp": "2025-12-19T22:41:52.674661+00:00", "meta": {"OBJECT_NAME": "FENGYUN 1C DEB", "OBJECT_ID": "1999-025BLX", "EPOCH": "2025-12-19T08:47:03.960384", "MEAN_MOTION": 14.38721088, "ECCENTRICITY": 0.0066948, "INCLINATION": 99.2354, "RA_OF_ASC_NODE": 140.6878, "ARG_OF_PERICENTER": 161.6976, "MEAN_ANOMALY": 198.6641, "EPHEMERIS_TYPE": 0, "CLASSIFICATION_TYPE": "U", "NORAD_CAT_ID": 31241, "ELEMENT_SET_NO": 999, "REV_AT_EPOCH": 97786, "BSTAR": 0.00043547, "MEAN_MOTION_DOT": 1.321e-05, "MEAN_MOTION_DDOT": 0}, "tle": {"line1": "1 31241U 99025BLX 25353.36601806  .00001321  00000+0  43547-3 0  9996", "line2": "2 31241  99.2354 140.6878 0066948 161.6976 198.6641 14.38721088977862"}}, "geometry": {"type": "Point", "coordinates": [-23.665985847361977, 57.883133295910575]}}, {"type": "Feature", "properties": {"norad_id": 31243, "name": "FENGYUN 1C DEB", "group": "fengyun-1c-debris", "lat": -50.95392362241553, "lon": 44.92344169855475, "alt_km": 920.935110902642, "timestamp": "2025-12-19T22:41:52.674671+00:00", "meta": {"OBJECT_NAME": "FENGYUN 1C DEB", "OBJECT_ID": "1999-025BLZ", "EPOCH": "2025-12-18T09:24:14.505120", "MEAN_MOTION": 14.07185132, "ECCENTRICITY": 0.00662196, "INCLINATION": 98.7499, "RA_OF_ASC_NODE": 32.4739, "ARG_OF_PERICENTER": 152.7117, "MEAN_ANOMALY": 207.7557, "EPHEMERIS_TYPE": 0, "CLASSIFICATION_TYPE": "U", "NORAD_CAT_ID": 31243, "ELEMENT_SET_NO": 999, "REV_AT_EPOCH": 69387, "BSTAR": 0.00075786632, "MEAN_MOTION_DOT": 1.253e-05, "MEAN_MOTION_DDOT": 0}, "tle": {"line1": "1 31243U 99025BLZ 25352.39183455  .00001253  00000+0  75787-3 0  9990", "line2": "2 31243  98.7499  32.4739 0066219 152.7117 207.7557 14.07185132693875"}}, "geometry": {"type": "Point", "coordinates": [44.92344169855475, -50.95392362241553]}}, {"type": "Feature", "properties": {"norad_id": 31244, "name": "FENGYUN 1C DEB", "group": "fengyun-1c-debris", "lat": -51.05999506698833, "lon": 68.91020701393984, "alt_km": 945.1800679889448, "timestamp": "2025-12-19T22:41:52.674681+00:00", "meta": {"OBJECT_NAME": "FENGYUN 1C DEB", "OBJECT_ID": "1999-025BMA", "EPOCH": "2025-12-07T22:21:36.542016", "MEAN_MOTION": 14.06237413, "ECCENTRICITY": 0.01023168, "INCLINATION": 99.037, "RA_OF_ASC_NODE": 45.5611, "ARG_OF_PERICENTER": 188.335, "MEAN_ANOMALY": 171.6122, "EPHEMERIS_TYPE": 0, "CLASSIFICATION_TYPE": "U", "NORAD_CAT_ID": 31244, "ELEMENT_SET_NO": 999, "REV_AT_EPOCH": 57572, "BSTAR": 0.00047777338, "MEAN_MOTION_DOT": 7.8e-06, "MEAN_MOTION_DDOT": 0}, "tle": {"line1": "1 31244U 99025BMA 25341.93167294  .00000780  00000+0  47777-3 0  9994", "line2": "2 31244  99.0370  45.5611 0102316 188.3350 171.6122 14.06237413575724"}}, "geometry": {"type": "Point", "coordinates": [68.91020701393984, -51.05999506698833]}}, {"type": "Feature", "properties": {"norad_id": 31246, "name": "FENGYUN 1C DEB", "group": "fengyun-1c-debris", "lat": -59.554032898899294, "lon": 5.447381153685589, "alt_km": 860.7077147844993, "timestamp": "2025-12-19T22:41:52.674693+00:00", "meta": {"OBJECT_NAME": "FENGYUN 1C DEB", "OBJECT_ID": "1999-025BMC", "EPOCH": "2025-12-12T08:40:07.558176", "MEAN_MOTION": 14.07203108, "ECCENTRICITY": 0.01486979, "INCLINATION": 98.8179, "RA_OF_ASC_NODE": 193.3588, "ARG_OF_PERICENTER": 344.8205, "MEAN_ANOMALY": 14.8526, "EPHEMERIS_TYPE": 0, "CLASSIFICATION_TYPE": "U", "NORAD_CAT_ID": 31246, "ELEMENT_SET_NO": 999, "REV_AT_EPOCH": 61747, "BSTAR": 0.003171684, "MEAN_MOTION_DOT": 5.838e-05, "MEAN_MOTION_DDOT": 0}, "tle": {"line1": "1 31246U 99025BMC 25346.36119859  .00005838  00000+0  31717-2 0  9997", "line2": "2 31246  98.8179 193.3588 0148697 344.8205  14.8526 14.07203108617475"}}, "geometry": {"type": "Point", "coordinates": [5.447381153685589, -59.554032898899294]}}, {"type": "Feature", "properties": {"norad_id": 31247, "name": "FENGYUN 1C DEB", "group": "fengyun-1c-debris", "lat": -30.178327173610633, "lon": 56.85108520994134, "alt_km": 923.7740799011617, "timestamp": "2025-12-19T22:41:52.674703+00:00", "meta": {"OBJECT_NAME": "FENGYUN 1C DEB", "OBJECT_ID": "1999-025BMD", "EPOCH": "2025-12-19T03:38:56.942880", "MEAN_MOTION": 14.05141398, "ECCENTRICITY": 0.00591155, "INCLINATION": 99.3669, "RA_OF_ASC_NODE": 241.5398, "ARG_OF_PERICENTER": 45.1692, "MEAN_ANOMALY": 112.4499, "EPHEMERIS_TYPE": 0, "CLASSIFICATION_TYPE": "U", "NORAD_CAT_ID": 31247, "ELEMENT_SET_NO": 999, "REV_AT_EPOCH": 95611, "BSTAR": 0.0010015357, "MEAN_MOTION_DOT": 1.595e-05, "MEAN_MOTION_DDOT": 0}, "tle": {"line1": "1 31247U 99025BMD 25353.15204795  .00001595  00000+0  10015-2 0  9991", "line2": "2 31247  99.3669 241.5398 0059115  45.1692 112.4499 14.05141398956119"}}, "geometry": {"type": "Point", "coordinates": [56.85108520994134, -30.178327173610633]}}, {"type": "Feature", "properties": {"norad_id": 31248, "name": "FENGYUN 1C DEB", "group": "fengyun-1c-debris", "lat": 73.13512154747926, "lon": -96.02023010068001, "alt_km": 991.2170169929686, "timestamp": "2025-12-19T22:41:52.674714+00:00", "meta": {"OBJECT_NAME": "FENGYUN 1C DEB", "OBJECT_ID": "1999-025BME", "EPOCH": "2025-12-18T15:54:42.813792", "MEAN_MOTION": 13.92792265, "ECCENTRICITY": 0.01098054, "INCLINATION": 99.2637, "RA_OF_ASC_NODE": 50.1244, "ARG_OF_PERICENTER": 295.1877, "MEAN_ANOMALY": 220.4499, "EPHEMERIS_TYPE": 0, "CLASSIFICATION_TYPE": "U", "NORAD_CAT_ID": 31248, "ELEMENT_SET_NO": 999, "REV_AT_EPOCH": 94906, "BSTAR": 0.00044323631, "MEAN_MOTION_DOT": 5.57e-06, "MEAN_MOTION_DDOT": 0}, "tle": {"line1": "1 31248U 99025BME 25352.66299553  .00000557  00000+0  44324-3 0  9991", "line2": "2 31248  99.2637  50.1244 0109805 295.1877 220.4499 13.92792265949068"}}, "geometry": {"type": "Point", "coordinates": [-96.02023010068001, 73.13512154747926]}}, {"type": "Feature", "properties": {"norad_id": 31250, "name": "FENGYUN 1C DEB", "group": "fengyun-1c-debris", "lat": -19.377458281955054, "lon": 20.446219292847847, "alt_km": 866.9908171591842, "timestamp": "2025-12-19T22:41:52.674724+00:00", "meta": {"OBJECT_NAME": "FENGYUN 1C DEB", "OBJECT_ID": "1999-025BMG", "EPOCH": "2025-12-18T13:13:06.686976", "MEAN_MOTION": 14.03106073, "ECCENTRICITY": 0.01330971, "INCLINATION": 98.3884, "RA_OF_ASC_NODE": 202.1345, "ARG_OF_PERICENTER": 281.558, "MEAN_ANOMALY": 77.0672, "EPHEMERIS_TYPE": 0, "CLASSIFICATION_TYPE": "U", "NORAD_CAT_ID": 31250, "ELEMENT_SET_NO": 999, "REV_AT_EPOCH": 95599, "BSTAR": 0.00086627181, "MEAN_MOTION_DOT": 1.417e-05, "MEAN_MOTION_DDOT": 0}, "tle": {"line1": "1 31250U 99025BMG 25352.55077184  .00001417  00000+0  86627-3 0  9994", "line2": "2 31250  98.3884 202.1345 0133097 281.5580  77.0672 14.03106073955993"}}, "geometry": {"type": "Point", "coordinates": [20.446219292847847, -19.377458281955054]}}, {"type": "Feature", "properties": {"norad_id": 31252, "name": "FENGYUN 1C DEB", "group": "fengyun-1c-debris", "lat": 40.973870114373824, "lon": -160.1101276728548, "alt_km": 605.1108437303719, "timestamp": "2025-12-19T22:41:52.674734+00:00", "meta": {"OBJECT_NAME": "FENGYUN 1C DEB", "OBJECT_ID": "1999-025BMJ", "EPOCH": "2025-12-17T18:22:10.909056", "MEAN_MOTION": 14.40187577, "ECCENTRICITY": 0.02140088, "INCLINATION": 98.3168, "RA_OF_ASC_NODE": 10.4713, "ARG_OF_PERICENTER": 157.098, "MEAN_ANOMALY": 203.9929, "EPHEMERIS_TYPE": 0, "CLASSIFICATION_TYPE": "U", "NORAD_CAT_ID": 31252, "ELEMENT_SET_NO": 999, "REV_AT_EPOCH": 97279, "BSTAR": 0.00025554258, "MEAN_MOTION_DOT": 1.009e-05, "MEAN_MOTION_DDOT": 0}, "tle": {"line1": "1 31252U 99025BMJ 25351.76540404  .00001009  00000+0  25554-3 0  9997", "line2": "2 31252  98.3168  10.4713 0214008 157.0980 203.9929 14.40187577972793"}}, "geometry": {"type": "Point", "coordinates": [-160.1101276728548, 40.973870114373824]}}, {"type": "Feature", "properties": {"norad_id": 31253, "name": "FENGYUN 1C DEB", "group": "fengyun-1c-debris", "lat": 22.5588336214224, "lon": 55.15627970989455, "alt_km": 736.0235443426127, "timestamp": "2025-12-19T22:41:52.674744+00:00", "meta": {"OBJECT_NAME": "FENGYUN 1C DEB", "OBJECT_ID": "1999-025BMK", "EPOCH": "2025-12-17T22:41:24.357984", "MEAN_MOTION": 14.03605882, "ECCENTRICITY": 0.02907471, "INCLINATION": 99.0768, "RA_OF_ASC_NODE": 56.9647, "ARG_OF_PERICENTER": 76.4077, "MEAN_ANOMALY": 286.9293, "EPHEMERIS_TYPE": 0, "CLASSIFICATION_TYPE": "U", "NORAD_CAT_ID": 31253, "ELEMENT_SET_NO": 999, "REV_AT_EPOCH": 69071, "BSTAR": 5.1352029e-05, "MEAN_MOTION_DOT": 7.2e-07, "MEAN_MOTION_DDOT": 0}, "tle": {"line1": "1 31253U 99025BMK 25351.94542081  .00000072  00000+0  51352-4 0  9996", "line2": "2 31253  99.0768  56.9647 0290747  76.4077 286.9293 14.03605882690711"}}, "geometry": {"type": "Point", "coordinates": [55.15627970989455, 22.5588336214224]}}, {"type": "Feature", "properties": {"norad_id": 31254, "name": "FENGYUN 1C DEB", "group": "fengyun-1c-debris", "lat": -29.51843330155059, "lon": -141.32101072435555, "alt_km": 681.2943323983818, "timestamp": "2025-12-19T22:41:52.674755+00:00", "meta": {"OBJECT_NAME": "FENGYUN 1C DEB", "OBJECT_ID": "1999-025BML", "EPOCH": "2025-12-18T22:54:20.078784", "MEAN_MOTION": 14.3637614, "ECCENTRICITY": 0.01516121, "INCLINATION": 98.4619, "RA_OF_ASC_NODE": 42.54, "ARG_OF_PERICENTER": 183.5972, "MEAN_ANOMALY": 302.0613, "EPHEMERIS_TYPE": 0, "CLASSIFICATION_TYPE": "U", "NORAD_CAT_ID": 31254, "ELEMENT_SET_NO": 999, "REV_AT_EPOCH": 97605, "BSTAR": 0.00038423181, "MEAN_MOTION_DOT": 1.236e-05, "MEAN_MOTION_DDOT": 0}, "tle": {"line1": "1 31254U 99025BML 25352.95439906  .00001236  00000+0  38423-3 0  9996", "line2": "2 31254  98.4619  42.5400 0151612 183.5972 302.0613 14.36376140976057"}}, "geometry": {"type": "Point", "coordinates": [-141.32101072435555, -29.51843330155059]}}]}